{"type": "FeatureCollection", "features": [ {"type": "Feature", "properties": {"norad_id": 66651, "name": "2025-274B", "group": "last-30-days", "lat": 81.04594131815482, "lon": 159.94983636054272, "alt_km": 589.8664064430914, "timestamp": "2025-12-19T04:59:47.030927+00:00", "meta": {"OBJECT_NAME": "2025-274B", "OBJECT_ID": "2025-274B", "EPOCH": "2025-12-18T18:54:54.289440", "MEAN_MOTION": 14.91839474, "ECCENTRICITY": 0.00109219, "INCLINATION": 97.7394, "RA_OF_ASC_NODE": 279.8668, "ARG_OF_PERICENTER": 227.976, "MEAN_ANOMALY": 132.0529, "EPHEMERIS_TYPE": 0, "CLASSIFICATION_TYPE": "U", "NORAD_CAT_ID": 66651, "ELEMENT_SET_NO": 999, "REV_AT_EPOCH": 330, "BSTAR": 0.00023159462, "MEAN_MOTION_DOT": 2.284e-05, "MEAN_MOTION_DDOT": 0}, "tle": {"line1": "1 66651U 25274B   25352.78812835  .00002284  00000+0  23159-3 0  9991", "line2": "2 66651  97.7394 279.8668 0010921 227.9760 132.0529 14.91839474  3305"}}, "geometry": {"type": "Point", "coordinates": [159.94983636054272, 81.04594131815482]}}, {"type": "Feature", "properties": {"norad_id": 66652, "name": "2025-274C", "group": "last-30-days", "lat": 73.6085484484883, "lon": 127.82502719247428, "alt_km": 589.487517683413, "timestamp": "2025-12-19T04:59:47.030937+00:00", "meta": {"OBJECT_NAME": "2025-274C", "OBJECT_ID": "2025-274C", "EPOCH": "2025-12-18T18:52:16.086720", "MEAN_MOTION": 14.9193383, "ECCENTRICITY": 0.00105386, "INCLINATION": 97.74, "RA_OF_ASC_NODE": 279.8704, "ARG_OF_PERICENTER": 234.9183, "MEAN_ANOMALY": 125.1049, "EPHEMERIS_TYPE": 0, "CLASSIFICATION_TYPE": "U", "NORAD_CAT_ID": 66652, "ELEMENT_SET_NO": 999, "REV_AT_EPOCH": 330, "BSTAR": 0.00017679469, "MEAN_MOTION_DOT": 1.735e-05, "MEAN_MOTION_DDOT": 0}, "tle": {"line1": "1 66652U 25274C   25352.78629730  .00001735  00000+0  17679-3 0  9992", "line2": "2 66652  97.7400 279.8704 0010538 234.9183 125.1049 14.91933830  3307"}}, "geometry": {"type": "Point", "coordinates": [127.82502719247428, 73.6085484484883]}}, {"type": "Feature", "properties": {"norad_id": 66653, "name": "2025-274D", "group": "last-30-days", "lat": 73.2212077352183, "lon": 127.0964773745252, "alt_km": 589.4347301189528, "timestamp": "2025-12-19T04:59:47.030950+00:00", "meta": {"OBJECT_NAME": "2025-274D", "OBJECT_ID": "2025-274D", "EPOCH": "2025-12-18T20:28:43.471488", "MEAN_MOTION": 14.91933925, "ECCENTRICITY": 0.00114401, "INCLINATION": 97.7396, "RA_OF_ASC_NODE": 279.9361, "ARG_OF_PERICENTER": 230.8702, "MEAN_ANOMALY": 129.1501, "EPHEMERIS_TYPE": 0, "CLASSIFICATION_TYPE": "U", "NORAD_CAT_ID": 66653, "ELEMENT_SET_NO": 999, "REV_AT_EPOCH": 331, "BSTAR": 0.000158257, "MEAN_MOTION_DOT": 1.547e-05, "MEAN_MOTION_DDOT": 0}, "tle": {"line1": "1 66653U 25274D   25352.85328092  .00001547  00000+0  15826-3 0  9991", "line2": "2 66653  97.7396 279.9361 0011440 230.8702 129.1501 14.91933925  3310"}}, "geometry": {"type": "Point", "coordinates": [127.0964773745252, 73.2212077352183]}}, {"type": "Feature", "properties": {"norad_id": 66654, "name": "JACK E", "group": "last-30-days", "lat": 60.272547569549815, "lon": 114.07056904201599, "alt_km": 588.7436196864883, "timestamp": "2025-12-19T04:59:47.030960+00:00", "meta": {"OBJECT_NAME": "JACK E", "OBJECT_ID": "2025-274E", "EPOCH": "2025-12-18T20:25:04.095840", "MEAN_MOTION": 14.92115116, "ECCENTRICITY": 0.00119932, "INCLINATION": 97.74, "RA_OF_ASC_NODE": 279.9401, "ARG_OF_PERICENTER": 232.7773, "MEAN_ANOMALY": 127.2352, "EPHEMERIS_TYPE": 0, "CLASSIFICATION_TYPE": "U", "NORAD_CAT_ID": 66654, "ELEMENT_SET_NO": 999, "REV_AT_EPOCH": 331, "BSTAR": 0.0001596937, "MEAN_MOTION_DOT": 1.569e-05, "MEAN_MOTION_DDOT": 0}, "tle": {"line1": "1 66654U 25274E   25352.85074185  .00001569  00000+0  15969-3 0  9995", "line2": "2 66654  97.7400 279.9401 0011993 232.7773 127.2352 14.92115116  3312"}}, "geometry": {"type": "Point", "coordinates": [114.07056904201599, 60.272547569549815]}}, {"type": "Feature", "properties": {"norad_id": 66655, "name": "2025-274F", "group": "last-30-days", "lat": 77.06353666733189, "lon": 136.54708586770107, "alt_km": 587.5677451853644, "timestamp": "2025-12-19T04:59:47.030972+00:00", "meta": {"OBJECT_NAME": "2025-274F", "OBJECT_ID": "2025-274F", "EPOCH": "2025-12-18T18:53:07.339200", "MEAN_MOTION": 14.91174217, "ECCENTRICITY": 0.00049938, "INCLINATION": 97.7329, "RA_OF_ASC_NODE": 279.8662, "ARG_OF_PERICENTER": 2.8245, "MEAN_ANOMALY": 357.3001, "EPHEMERIS_TYPE": 0, "CLASSIFICATION_TYPE": "U", "NORAD_CAT_ID": 66655, "ELEMENT_SET_NO": 999, "REV_AT_EPOCH": 330, "BSTAR": -7.422034e-06, "MEAN_MOTION_DOT": -1.29e-06, "MEAN_MOTION_DDOT": 0}, "tle": {"line1": "1 66655U 25274F   25352.78689050 -.00000129  00000+0 -74220-5 0  9991", "line2": "2 66655  97.7329 279.8662 0004993   2.8245 357.3001 14.91174217  3305"}}, "geometry": {"type": "Point", "coordinates": [136.54708586770107, 77.06353666733189]}}, {"type": "Feature", "properties": {"norad_id": 66656, "name": "2025-274G", "group": "last-30-days", "lat": 45.553707533212304, "lon": 108.26744607280455, "alt_km": 588.255535871499, "timestamp": "2025-12-19T04:59:47.030982+00:00", "meta": {"OBJECT_NAME": "2025-274G", "OBJECT_ID": "2025-274G", "EPOCH": "2025-12-18T20:21:04.908672", "MEAN_MOTION": 14.92309639, "ECCENTRICITY": 0.00125395, "INCLINATION": 97.74, "RA_OF_ASC_NODE": 279.943, "ARG_OF_PERICENTER": 234.5061, "MEAN_ANOMALY": 125.4989, "EPHEMERIS_TYPE": 0, "CLASSIFICATION_TYPE": "U", "NORAD_CAT_ID": 66656, "ELEMENT_SET_NO": 999, "REV_AT_EPOCH": 331, "BSTAR": 0.0001776725, "MEAN_MOTION_DOT": 1.761e-05, "MEAN_MOTION_DDOT": 0}, "tle": {"line1": "1 66656U 25274G   25352.84797348  .00001761  00000+0  17767-3 0  9991", "line2": "2 66656  97.7400 279.9430 0012539 234.5061 125.4989 14.92309639  3314"}}, "geometry": {"type": "Point", "coordinates": [108.26744607280455, 45.553707533212304]}}, {"type": "Feature", "properties": {"norad_id": 66657, "name": "SPIRONE", "group": "last-30-days", "lat": 31.2318718625256, "lon": 105.03323044710389, "alt_km": 590.2157267751472, "timestamp": "2025-12-19T04:59:47.030992+00:00", "meta": {"OBJECT_NAME": "SPIRONE", "OBJECT_ID": "2025-274H", "EPOCH": "2025-12-18T20:17:15.327456", "MEAN_MOTION": 14.92488768, "ECCENTRICITY": 0.00107229, "INCLINATION": 97.7399, "RA_OF_ASC_NODE": 279.9459, "ARG_OF_PERICENTER": 252.9623, "MEAN_ANOMALY": 107.0422, "EPHEMERIS_TYPE": 0, "CLASSIFICATION_TYPE": "U", "NORAD_CAT_ID": 66657, "ELEMENT_SET_NO": 999, "REV_AT_EPOCH": 331, "BSTAR": 0.00017540552, "MEAN_MOTION_DOT": 1.745e-05, "MEAN_MOTION_DDOT": 0}, "tle": {"line1": "1 66657U 25274H   25352.84531629  .00001745  00000+0  17541-3 0  9992", "line2": "2 66657  97.7399 279.9459 0010722 252.9623 107.0422 14.92488768  3312"}}, "geometry": {"type": "Point", "coordinates": [105.03323044710389, 31.2318718625256]}}, {"type": "Feature", "properties": {"norad_id": 66658, "name": "2025-274J", "group": "last-30-days", "lat": 17.376195218457674, "lon": 102.7477742501503, "alt_km": 590.5168755763953, "timestamp": "2025-12-19T04:59:47.031002+00:00", "meta": {"OBJECT_NAME": "2025-274J", "OBJECT_ID": "2025-274J", "EPOCH": "2025-12-18T20:13:33.445344", "MEAN_MOTION": 14.92659104, "ECCENTRICITY": 0.00112459, "INCLINATION": 97.7398, "RA_OF_ASC_NODE": 279.9493, "ARG_OF_PERICENTER": 256.1466, "MEAN_ANOMALY": 103.8502, "EPHEMERIS_TYPE": 0, "CLASSIFICATION_TYPE": "U", "NORAD_CAT_ID": 66658, "ELEMENT_SET_NO": 999, "REV_AT_EPOCH": 331, "BSTAR": 0.00017520649, "MEAN_MOTION_DOT": 1.751e-05, "MEAN_MOTION_DDOT": 0}, "tle": {"line1": "1 66658U 25274J   25352.84274821  .00001751  00000+0  17521-3 0  9996", "line2": "2 66658  97.7398 279.9493 0011245 256.1466 103.8502 14.92659104  3319"}}, "geometry": {"type": "Point", "coordinates": [102.7477742501503, 17.376195218457674]}}, {"type": "Feature", "properties": {"norad_id": 66659, "name": "JACK K", "group": "last-30-days", "lat": 2.50345805836882, "lon": 100.65642588929445, "alt_km": 590.1946860170037, "timestamp": "2025-12-19T04:59:47.031012+00:00", "meta": {"OBJECT_NAME": "JACK K", "OBJECT_ID": "2025-274K", "EPOCH": "2025-12-18T16:56:33.329184", "MEAN_MOTION": 14.92843404, "ECCENTRICITY": 0.00119534, "INCLINATION": 97.74, "RA_OF_ASC_NODE": 279.8218, "ARG_OF_PERICENTER": 258.1182, "MEAN_ANOMALY": 101.8697, "EPHEMERIS_TYPE": 0, "CLASSIFICATION_TYPE": "U", "NORAD_CAT_ID": 66659, "ELEMENT_SET_NO": 999, "REV_AT_EPOCH": 329, "BSTAR": 0.00018040546, "MEAN_MOTION_DOT": 1.813e-05, "MEAN_MOTION_DDOT": 0}, "tle": {"line1": "1 66659U 25274K   25352.70594131  .00001813  00000+0  18041-3 0  9998", "line2": "2 66659  97.7400 279.8218 0011953 258.1182 101.8697 14.92843404  3299"}}, "geometry": {"type": "Point", "coordinates": [100.65642588929445, 2.50345805836882]}}, {"type": "Feature", "properties": {"norad_id": 66660, "name": "K-HERO", "group": "last-30-days", "lat": -9.537320830034622, "lon": 99.01234765429457, "alt_km": 589.4607073389298, "timestamp": "2025-12-19T04:59:47.031022+00:00", "meta": {"OBJECT_NAME": "K-HERO", "OBJECT_ID": "2025-274L", "EPOCH": "2025-12-18T18:29:52.806048", "MEAN_MOTION": 14.92995215, "ECCENTRICITY": 0.00125308, "INCLINATION": 97.7404, "RA_OF_ASC_NODE": 279.8915, "ARG_OF_PERICENTER": 258.5821, "MEAN_ANOMALY": 101.3991, "EPHEMERIS_TYPE": 0, "CLASSIFICATION_TYPE": "U", "NORAD_CAT_ID": 66660, "ELEMENT_SET_NO": 999, "REV_AT_EPOCH": 330, "BSTAR": 0.00019949035, "MEAN_MOTION_DOT": 2.019e-05, "MEAN_MOTION_DDOT": 0}, "tle": {"line1": "1 66660U 25274L   25352.77075007  .00002019  00000+0  19949-3 0  9990", "line2": "2 66660  97.7404 279.8915 0012530 258.5821 101.3991 14.92995215  3307"}}, "geometry": {"type": "Point", "coordinates": [99.01234765429457, -9.537320830034622]}}]}